{"fetched_at":"2026-07-06T18:35:34.868Z","source":"https://celestrak.org/NORAD/elements/gp.php?NAME=GLOBAL&FORMAT=JSON","constellation":"blacksky-gen2","records":[{"OBJECT_NAME":"GLOBAL-2","OBJECT_ID":"2018-099BG","EPOCH":"2026-07-06T02:37:47.932320","CLASSIFICATION_TYPE":"U","MEAN_MOTION":15.08791351,"ECCENTRICITY":0.0007575,"INCLINATION":97.3546,"RA_OF_ASC_NODE":222.8361,"ARG_OF_PERICENTER":91.3915,"MEAN_ANOMALY":268.8182,"EPHEMERIS_TYPE":0,"NORAD_CAT_ID":43812,"ELEMENT_SET_NO":999,"REV_AT_EPOCH":41476,"BSTAR":0.00026216612,"MEAN_MOTION_DOT":0.00004063,"MEAN_MOTION_DDOT":0},{"OBJECT_NAME":"GLOBAL-4","OBJECT_ID":"2019-054E","EPOCH":"2026-07-06T05:21:24.848064","CLASSIFICATION_TYPE":"U","MEAN_MOTION":15.6630115,"ECCENTRICITY":0.00041515,"INCLINATION":45.0045,"RA_OF_ASC_NODE":126.4158,"ARG_OF_PERICENTER":131.7298,"MEAN_ANOMALY":228.3955,"EPHEMERIS_TYPE":0,"NORAD_CAT_ID":44499,"ELEMENT_SET_NO":999,"REV_AT_EPOCH":38334,"BSTAR":0.00060824783,"MEAN_MOTION_DOT":0.00064673,"MEAN_MOTION_DDOT":0},{"OBJECT_NAME":"GLOBAL-9","OBJECT_ID":"2021-023G","EPOCH":"2026-07-06T05:43:13.217952","CLASSIFICATION_TYPE":"U","MEAN_MOTION":15.47334913,"ECCENTRICITY":0.00026624,"INCLINATION":44.9802,"RA_OF_ASC_NODE":143.3908,"ARG_OF_PERICENTER":94.3567,"MEAN_ANOMALY":265.7628,"EPHEMERIS_TYPE":0,"NORAD_CAT_ID":47971,"ELEMENT_SET_NO":999,"REV_AT_EPOCH":29789,"BSTAR":0.00042115871,"MEAN_MOTION_DOT":0.00021698,"MEAN_MOTION_DDOT":0},{"OBJECT_NAME":"GLOBAL-14","OBJECT_ID":"2021-106A","EPOCH":"2026-07-06T06:35:47.366592","CLASSIFICATION_TYPE":"U","MEAN_MOTION":15.5150746,"ECCENTRICITY":0.0016046,"INCLINATION":42.0028,"RA_OF_ASC_NODE":177.5658,"ARG_OF_PERICENTER":162.4062,"MEAN_ANOMALY":197.7341,"EPHEMERIS_TYPE":0,"NORAD_CAT_ID":49469,"ELEMENT_SET_NO":999,"REV_AT_EPOCH":26109,"BSTAR":0.00039865003,"MEAN_MOTION_DOT":0.00024071,"MEAN_MOTION_DDOT":0},{"OBJECT_NAME":"GLOBAL-12","OBJECT_ID":"2021-115BA","EPOCH":"2026-07-05T23:30:40.510656","CLASSIFICATION_TYPE":"U","MEAN_MOTION":15.54865684,"ECCENTRICITY":0.00026062,"INCLINATION":53.196,"RA_OF_ASC_NODE":314.1042,"ARG_OF_PERICENTER":70.5332,"MEAN_ANOMALY":289.5961,"EPHEMERIS_TYPE":0,"NORAD_CAT_ID":49772,"ELEMENT_SET_NO":999,"REV_AT_EPOCH":25882,"BSTAR":0.00055903445,"MEAN_MOTION_DOT":0.00037665,"MEAN_MOTION_DDOT":0},{"OBJECT_NAME":"GLOBAL-13","OBJECT_ID":"2021-115BB","EPOCH":"2026-07-05T23:47:57.297696","CLASSIFICATION_TYPE":"U","MEAN_MOTION":15.46844274,"ECCENTRICITY":0.00016707,"INCLINATION":53.1984,"RA_OF_ASC_NODE":325.149,"ARG_OF_PERICENTER":148.98,"MEAN_ANOMALY":211.1307,"EPHEMERIS_TYPE":0,"NORAD_CAT_ID":49773,"ELEMENT_SET_NO":999,"REV_AT_EPOCH":25867,"BSTAR":0.00049047921,"MEAN_MOTION_DOT":0.00024674,"MEAN_MOTION_DDOT":0},{"OBJECT_NAME":"GLOBAL-17","OBJECT_ID":"2021-120A","EPOCH":"2026-07-05T23:58:36.845184","CLASSIFICATION_TYPE":"U","MEAN_MOTION":15.53341383,"ECCENTRICITY":0.00142557,"INCLINATION":41.9951,"RA_OF_ASC_NODE":297.1176,"ARG_OF_PERICENTER":20.9581,"MEAN_ANOMALY":339.1846,"EPHEMERIS_TYPE":0,"NORAD_CAT_ID":49949,"ELEMENT_SET_NO":999,"REV_AT_EPOCH":25782,"BSTAR":0.00047045057,"MEAN_MOTION_DOT":0.00030423,"MEAN_MOTION_DDOT":0},{"OBJECT_NAME":"GLOBAL-16","OBJECT_ID":"2021-120B","EPOCH":"2026-07-06T07:06:04.454496","CLASSIFICATION_TYPE":"U","MEAN_MOTION":15.51164155,"ECCENTRICITY":0.00124724,"INCLINATION":41.9958,"RA_OF_ASC_NODE":299.4417,"ARG_OF_PERICENTER":12.2757,"MEAN_ANOMALY":347.8389,"EPHEMERIS_TYPE":0,"NORAD_CAT_ID":49950,"ELEMENT_SET_NO":999,"REV_AT_EPOCH":25781,"BSTAR":0.00044697809,"MEAN_MOTION_DOT":0.00026649,"MEAN_MOTION_DDOT":0},{"OBJECT_NAME":"GLOBAL-18","OBJECT_ID":"2022-034B","EPOCH":"2026-07-06T06:04:44.634432","CLASSIFICATION_TYPE":"U","MEAN_MOTION":15.46955013,"ECCENTRICITY":0.00041569,"INCLINATION":52.9804,"RA_OF_ASC_NODE":165.4715,"ARG_OF_PERICENTER":359.3535,"MEAN_ANOMALY":0.7464,"EPHEMERIS_TYPE":0,"NORAD_CAT_ID":52196,"ELEMENT_SET_NO":999,"REV_AT_EPOCH":23991,"BSTAR":0.00037521849,"MEAN_MOTION_DOT":0.00018838,"MEAN_MOTION_DDOT":0},{"OBJECT_NAME":"GLOBAL-19","OBJECT_ID":"2023-041B","EPOCH":"2026-07-06T02:56:39.954624","CLASSIFICATION_TYPE":"U","MEAN_MOTION":15.38514598,"ECCENTRICITY":0.00080337,"INCLINATION":42.0015,"RA_OF_ASC_NODE":91.4283,"ARG_OF_PERICENTER":156.0579,"MEAN_ANOMALY":204.0636,"EPHEMERIS_TYPE":0,"NORAD_CAT_ID":55982,"ELEMENT_SET_NO":999,"REV_AT_EPOCH":18484,"BSTAR":0.0003680252,"MEAN_MOTION_DOT":0.00014081,"MEAN_MOTION_DDOT":0},{"OBJECT_NAME":"GLOBAL-5","OBJECT_ID":"2023-041C","EPOCH":"2026-07-06T02:10:21.015264","CLASSIFICATION_TYPE":"U","MEAN_MOTION":15.38525508,"ECCENTRICITY":0.00069258,"INCLINATION":42.0002,"RA_OF_ASC_NODE":91.1437,"ARG_OF_PERICENTER":149.5613,"MEAN_ANOMALY":210.563,"EPHEMERIS_TYPE":0,"NORAD_CAT_ID":55983,"ELEMENT_SET_NO":999,"REV_AT_EPOCH":18484,"BSTAR":0.00037371391,"MEAN_MOTION_DOT":0.00014305,"MEAN_MOTION_DDOT":0}]}
